OBJECT_NAME,OBJECT_ID,EPOCH,MEAN_MOTION,ECCENTRICITY,INCLINATION,RA_OF_ASC_NODE,ARG_OF_PERICENTER,MEAN_ANOMALY,EPHEMERIS_TYPE,CLASSIFICATION_TYPE,NORAD_CAT_ID,ELEMENT_SET_NO,REV_AT_EPOCH,BSTAR,MEAN_MOTION_DOT,MEAN_MOTION_DDOT
CUBEBUG-2 (LO-74),2013-066AA,2026-07-11T07:27:07.759008,14.93951590,.0056043,97.8909,141.3951,308.5622,51.0583,0,U,39440,999,68059,.17366E-3,.1843E-4,0
FUNCUBE-1 (AO-73),2013-066AE,2026-07-10T23:38:02.253120,15.09785992,.0037927,97.8286,163.9335,121.2536,239.2417,0,U,39444,999,68325,.25254E-3,.4079E-4,0
UWE-3,2013-066AG,2026-07-11T08:14:51.582048,14.97184048,.004753,97.8697,148.5848,237.9674,121.6926,0,U,39446,999,68119,.16088E-3,.1839E-4,0
UNISAT-6,2014-033C,2026-07-11T11:18:28.142784,14.88357634,.0044456,97.7900,344.7605,350.1970,9.8375,0,U,40012,999,64977,.11426E-3,.102E-4,0
DUCHIFAT-1,2014-033M,2026-07-11T09:52:16.917024,15.70259500,.0002055,98.0442,255.0791,250.9446,109.1592,0,U,40021,999,65954,.80962E-3,.99078E-3,0
QB50P1,2014-033R,2026-07-11T12:46:41.500128,15.18630137,.0010169,98.0966,205.3912,135.6881,224.5167,0,U,40025,999,65672,.2384E-3,.4864E-4,0
LILACSAT-2,2015-049K,2026-07-11T10:52:04.734048,15.52267007,.0008142,97.4632,230.2255,152.4759,207.6926,0,U,40908,999,59951,.20505E-3,.12372E-3,0
FOX-1A (AO-85),2015-058D,2026-07-11T00:41:55.149792,14.91072604,.0132046,64.7731,204.8837,47.3799,313.8357,0,U,40967,999,11712,.15193E-3,.1601E-4,0
CAS-2T & KS-1Q,2016-066G,2026-07-11T04:53:20.374656,14.44765066,.0342449,98.3814,267.6651,56.8459,306.5094,0,U,41847,999,50826,.1047E-3,.69E-5,0
RADFXSAT (FOX-1B),2017-073E,2026-07-11T02:02:10.716000,15.13028349,.0148032,97.4682,58.8129,245.7914,112.7786,0,U,43017,999,46900,.15974E-3,.3616E-4,0
DIWATA-2B,2018-084H,2026-07-11T12:14:29.039712,15.00554320,.0013001,98.1221,29.7830,95.8477,264.4228,0,U,43678,999,41986,.10525E-3,.1264E-4,0
ES'HAIL 2,2018-090A,2026-07-11T11:58:13.422144,1.00269294,.0002189,0.0261,38.7295,121.5840,334.4474,0,U,43700,999,2792,0,0,0
FOX-1CLIFF (AO-95),2018-099N,2026-07-11T03:03:59.508576,15.27218021,.0007011,97.4378,252.2917,257.0089,103.0367,0,U,43770,999,41687,.26022E-3,.6872E-4,0
ITASAT,2018-099AE,2026-07-11T03:05:13.589664,15.19350764,.0010761,97.4021,243.1647,266.8615,93.1389,0,U,43786,999,41654,.17404E-3,.3615E-4,0
JY1SAT (JO-97),2018-099AX,2026-07-10T23:16:37.848000,15.34427741,.0006447,97.4124,254.8968,171.3514,188.7841,0,U,43803,999,41727,.32704E-3,.10834E-3,0
UWE-4,2018-111E,2026-07-09T06:35:43.813824,15.47549208,.00052707,97.5841,119.7053,218.3666,141.7210,0,U,43880,999,41419,.53767723E-3,.2764E-3,0
TIANYAN 01,2019-093C,2026-07-11T11:29:36.665376,14.86556172,.0013884,97.7523,264.1178,13.4132,346.7450,0,U,44881,999,35502,.49413E-4,.385E-5,0
RS-44 & BREEZE-KM R/B,2019-096E,2026-07-11T11:25:05.652768,12.79748967,.0218576,82.5239,323.5653,87.6470,274.9636,0,U,44909,999,30545,-.66211E-4,-.3E-7,0
SALSAT,2020-068K,2026-07-11T11:24:19.420128,15.30138870,.0008815,97.8856,197.0247,206.7694,153.3092,0,U,46495,999,31907,.1561E-3,.4471E-4,0
XW-3 (CAS-9),2021-131B,2026-07-11T13:25:31.233792,14.41380445,.0004815,98.4983,284.8179,40.1738,319.9806,0,U,50466,999,23862,.14118E-3,.413E-5,0
GREENCUBE (IO-117),2022-080E,2026-07-11T07:23:26.296800,6.42583311,.0009046,70.1420,289.8579,284.3679,75.5976,0,U,53109,999,9361,0,-.3E-7,0
UMKA 1 (RS40S),2023-091G,2026-07-11T10:28:10.375680,15.21095120,.0013395,97.5042,251.0422,41.9402,318.2857,0,U,57172,999,16769,.17272E-3,.3778E-4,0
CUBESX-HSE 3 (RS42S),2023-091N,2026-07-11T09:55:46.659072,15.31824809,.0010067,97.5086,258.3149,15.5892,344.5658,0,U,57178,999,16813,.26353E-3,.803E-4,0
MONITOR-3 (RS58S),2023-091Q,2026-07-11T10:15:05.497344,15.28326165,.0011412,97.5078,256.0567,22.7933,337.3811,0,U,57180,999,16799,.21879E-3,.5969E-4,0
MONITOR-4 (RS57S),2023-091S,2026-07-11T11:17:16.086048,15.28412723,.0011412,97.5072,256.0727,23.0468,337.1281,0,U,57182,999,16800,.22823E-3,.6247E-4,0
MONITOR-2 (RS39S),2023-091U,2026-07-11T11:43:12.523296,15.19133419,.0011749,97.5063,250.6153,36.1448,324.0578,0,U,57184,999,16764,.13856E-3,.2846E-4,0
SVYATOBOR 1 (RS60S),2023-091X,2026-07-11T12:07:01.077312,15.27024280,.000912,97.5082,256.4608,17.5045,342.6507,0,U,57187,999,16802,.20026E-3,.524E-4,0
VIZARD-METEO (RS38S),2023-091Z,2026-07-11T10:34:34.058208,15.36796816,.0005991,97.5086,262.4229,355.1058,5.0126,0,U,57189,999,16841,.27673E-3,.9874E-4,0
POLYTECH-UNIVERSE 3 (RS46S),2023-091AB,2026-07-11T10:42:47.280384,15.19344910,.0016413,97.5039,250.0778,49.9933,310.2739,0,U,57191,999,16763,.15514E-3,.322E-4,0
UTMN 2 (RS27S),2023-091AP,2026-07-11T11:36:17.387712,15.32644642,.0007117,97.5083,260.0490,4.1225,356.0074,0,U,57203,999,16826,.2461E-3,.7683E-4,0
